{"fetched_at":"2026-07-07T18:29:48.621Z","source":"https://celestrak.org/NORAD/elements/gp.php?NAME=SPACEMOBILE&FORMAT=JSON","constellation":"ast-spacemobile","records":[{"OBJECT_NAME":"SPACEMOBILE-003","OBJECT_ID":"2024-163A","EPOCH":"2026-06-26T19:29:47.816736","CLASSIFICATION_TYPE":"U","MEAN_MOTION":15.20822722,"ECCENTRICITY":0.0005991,"INCLINATION":52.9744,"RA_OF_ASC_NODE":265.1828,"ARG_OF_PERICENTER":141.0621,"MEAN_ANOMALY":219.0806,"EPHEMERIS_TYPE":0,"NORAD_CAT_ID":61045,"ELEMENT_SET_NO":999,"REV_AT_EPOCH":9923,"BSTAR":0.000090246,"MEAN_MOTION_DOT":0.00001689,"MEAN_MOTION_DDOT":0},{"OBJECT_NAME":"SPACEMOBILE-005","OBJECT_ID":"2024-163B","EPOCH":"2026-07-06T07:47:25.125504","CLASSIFICATION_TYPE":"U","MEAN_MOTION":15.20800178,"ECCENTRICITY":0.00092973,"INCLINATION":52.9788,"RA_OF_ASC_NODE":221.376,"ARG_OF_PERICENTER":169.9979,"MEAN_ANOMALY":190.1202,"EPHEMERIS_TYPE":0,"NORAD_CAT_ID":61046,"ELEMENT_SET_NO":999,"REV_AT_EPOCH":10067,"BSTAR":-0.00017864937,"MEAN_MOTION_DOT":-0.00004321,"MEAN_MOTION_DDOT":0},{"OBJECT_NAME":"SPACEMOBILE-001","OBJECT_ID":"2024-163C","EPOCH":"2026-07-06T14:03:53.754048","CLASSIFICATION_TYPE":"U","MEAN_MOTION":15.20820517,"ECCENTRICITY":0.0007438,"INCLINATION":52.9741,"RA_OF_ASC_NODE":219.8899,"ARG_OF_PERICENTER":169.1843,"MEAN_ANOMALY":190.9313,"EPHEMERIS_TYPE":0,"NORAD_CAT_ID":61047,"ELEMENT_SET_NO":999,"REV_AT_EPOCH":10071,"BSTAR":0.000099523,"MEAN_MOTION_DOT":0.00001897,"MEAN_MOTION_DDOT":0},{"OBJECT_NAME":"SPACEMOBILE-002","OBJECT_ID":"2024-163D","EPOCH":"2026-07-07T10:11:07.645056","CLASSIFICATION_TYPE":"U","MEAN_MOTION":15.2086304,"ECCENTRICITY":0.0006252,"INCLINATION":52.9752,"RA_OF_ASC_NODE":216.077,"ARG_OF_PERICENTER":169.5969,"MEAN_ANOMALY":190.5156,"EPHEMERIS_TYPE":0,"NORAD_CAT_ID":61048,"ELEMENT_SET_NO":999,"REV_AT_EPOCH":10084,"BSTAR":0.00023275,"MEAN_MOTION_DOT":0.00004884,"MEAN_MOTION_DDOT":0},{"OBJECT_NAME":"SPACEMOBILE-004","OBJECT_ID":"2024-163E","EPOCH":"2026-07-06T11:41:01.712832","CLASSIFICATION_TYPE":"U","MEAN_MOTION":15.20801145,"ECCENTRICITY":0.0007073,"INCLINATION":52.9667,"RA_OF_ASC_NODE":220.1743,"ARG_OF_PERICENTER":196.8401,"MEAN_ANOMALY":163.236,"EPHEMERIS_TYPE":0,"NORAD_CAT_ID":61049,"ELEMENT_SET_NO":999,"REV_AT_EPOCH":10070,"BSTAR":0.00051661,"MEAN_MOTION_DOT":0.00011231,"MEAN_MOTION_DDOT":0},{"OBJECT_NAME":"SPACEMOBILE-001 DEB","OBJECT_ID":"2024-163F","EPOCH":"2026-07-07T01:00:47.822688","CLASSIFICATION_TYPE":"U","MEAN_MOTION":15.35284778,"ECCENTRICITY":0.000598,"INCLINATION":52.9926,"RA_OF_ASC_NODE":185.839,"ARG_OF_PERICENTER":222.2687,"MEAN_ANOMALY":137.7854,"EPHEMERIS_TYPE":0,"NORAD_CAT_ID":62369,"ELEMENT_SET_NO":999,"REV_AT_EPOCH":8955,"BSTAR":0.00017889,"MEAN_MOTION_DOT":0.00005842,"MEAN_MOTION_DDOT":0},{"OBJECT_NAME":"SPACEMOBILE-002 DEB","OBJECT_ID":"2024-163G","EPOCH":"2026-07-07T07:44:27.304800","CLASSIFICATION_TYPE":"U","MEAN_MOTION":15.43600518,"ECCENTRICITY":0.0004441,"INCLINATION":52.9409,"RA_OF_ASC_NODE":169.1619,"ARG_OF_PERICENTER":256.8724,"MEAN_ANOMALY":103.1785,"EPHEMERIS_TYPE":0,"NORAD_CAT_ID":62370,"ELEMENT_SET_NO":999,"REV_AT_EPOCH":10147,"BSTAR":0.00031036,"MEAN_MOTION_DOT":0.00013787,"MEAN_MOTION_DDOT":0},{"OBJECT_NAME":"SPACEMOBILE-003 DEB","OBJECT_ID":"2024-163H","EPOCH":"2026-07-07T00:29:48.844608","CLASSIFICATION_TYPE":"U","MEAN_MOTION":15.41343868,"ECCENTRICITY":0.000567,"INCLINATION":52.9689,"RA_OF_ASC_NODE":177.3452,"ARG_OF_PERICENTER":206.7381,"MEAN_ANOMALY":153.333,"EPHEMERIS_TYPE":0,"NORAD_CAT_ID":62371,"ELEMENT_SET_NO":999,"REV_AT_EPOCH":9494,"BSTAR":0.00032495,"MEAN_MOTION_DOT":0.00013382,"MEAN_MOTION_DDOT":0},{"OBJECT_NAME":"SPACEMOBILE-004 DEB","OBJECT_ID":"2024-163J","EPOCH":"2026-07-07T10:11:09.430944","CLASSIFICATION_TYPE":"U","MEAN_MOTION":15.40609926,"ECCENTRICITY":0.0002881,"INCLINATION":52.9833,"RA_OF_ASC_NODE":175.0275,"ARG_OF_PERICENTER":231.4307,"MEAN_ANOMALY":128.6438,"EPHEMERIS_TYPE":0,"NORAD_CAT_ID":62372,"ELEMENT_SET_NO":999,"REV_AT_EPOCH":9807,"BSTAR":0.00026343,"MEAN_MOTION_DOT":0.00010499,"MEAN_MOTION_DDOT":0},{"OBJECT_NAME":"SPACEMOBILE-005 DEB","OBJECT_ID":"2024-163K","EPOCH":"2026-07-06T23:53:28.100832","CLASSIFICATION_TYPE":"U","MEAN_MOTION":15.34552491,"ECCENTRICITY":0.0006,"INCLINATION":52.9737,"RA_OF_ASC_NODE":190.9324,"ARG_OF_PERICENTER":200.3273,"MEAN_ANOMALY":159.7489,"EPHEMERIS_TYPE":0,"NORAD_CAT_ID":62373,"ELEMENT_SET_NO":999,"REV_AT_EPOCH":10116,"BSTAR":0.00020671,"MEAN_MOTION_DOT":0.00006648,"MEAN_MOTION_DDOT":0},{"OBJECT_NAME":"SPACEMOBILE-006","OBJECT_ID":"2025-309A","EPOCH":"2026-07-07T04:21:59.298912","CLASSIFICATION_TYPE":"U","MEAN_MOTION":15.18643108,"ECCENTRICITY":0.0010676,"INCLINATION":52.9952,"RA_OF_ASC_NODE":240.045,"ARG_OF_PERICENTER":189.1004,"MEAN_ANOMALY":170.9798,"EPHEMERIS_TYPE":0,"NORAD_CAT_ID":67232,"ELEMENT_SET_NO":999,"REV_AT_EPOCH":2963,"BSTAR":0.000047122,"MEAN_MOTION_DOT":0.00000667,"MEAN_MOTION_DDOT":0},{"OBJECT_NAME":"SPACEMOBILE-008","OBJECT_ID":"2026-139A","EPOCH":"2026-07-07T10:09:20.829600","CLASSIFICATION_TYPE":"U","MEAN_MOTION":15.12794365,"ECCENTRICITY":0.0004639,"INCLINATION":52.9937,"RA_OF_ASC_NODE":170.6932,"ARG_OF_PERICENTER":37.6326,"MEAN_ANOMALY":322.4989,"EPHEMERIS_TYPE":0,"NORAD_CAT_ID":69589,"ELEMENT_SET_NO":999,"REV_AT_EPOCH":304,"BSTAR":0.00005146,"MEAN_MOTION_DOT":0.00000613,"MEAN_MOTION_DDOT":0},{"OBJECT_NAME":"SPACEMOBILE-009","OBJECT_ID":"2026-139B","EPOCH":"2026-07-07T08:36:14.501088","CLASSIFICATION_TYPE":"U","MEAN_MOTION":15.1268759,"ECCENTRICITY":0.0004892,"INCLINATION":52.9928,"RA_OF_ASC_NODE":170.9976,"ARG_OF_PERICENTER":32.8078,"MEAN_ANOMALY":327.3216,"EPHEMERIS_TYPE":0,"NORAD_CAT_ID":69590,"ELEMENT_SET_NO":999,"REV_AT_EPOCH":303,"BSTAR":0.000050953,"MEAN_MOTION_DOT":0.00000601,"MEAN_MOTION_DDOT":0},{"OBJECT_NAME":"SPACEMOBILE-010","OBJECT_ID":"2026-139C","EPOCH":"2026-07-07T10:14:37.011264","CLASSIFICATION_TYPE":"U","MEAN_MOTION":15.12518827,"ECCENTRICITY":0.0004774,"INCLINATION":52.9932,"RA_OF_ASC_NODE":170.7141,"ARG_OF_PERICENTER":24.0576,"MEAN_ANOMALY":336.0637,"EPHEMERIS_TYPE":0,"NORAD_CAT_ID":69591,"ELEMENT_SET_NO":999,"REV_AT_EPOCH":305,"BSTAR":0.000050381,"MEAN_MOTION_DOT":0.00000587,"MEAN_MOTION_DDOT":0}]}
